NORAD_CAT_ID,OBJECT_NAME,OBJECT_TYPE,EPOCH,MEAN_MOTION,ECCENTRICITY,INCLINATION,RA_OF_ASC_NODE,ARG_OF_PERICENTER,MEAN_ANOMALY,BSTAR,MEAN_MOTION_DOT,MEAN_MOTION_DDOT,TLE_LINE0,TLE_LINE1,TLE_LINE2,SEMIMAJOR_AXIS,PERIOD,APOGEE,PERIGEE,DECAYED
50812.0,STARLINK-3338,PAYLOAD,2022-06-04 13:02:18,15.08845759,0.0002066,53.2159,207.898,41.3352,318.7796,6.8161e-05,7.97e-06,0.0,0 STARLINK-3338,1 50812U 22001K   22155.54326657  .00000797  00000-0  68161-4 0  9993,2 50812  53.2159 207.8980 0002066  41.3352 318.7796 15.08845759 23096,6917.863,95.437,541.1569999999998,538.299,0.0
50812.0,STARLINK-3338,PAYLOAD,2022-06-05 22:00:00,15.08825159,0.0002082,53.2147,201.7328,38.0891,226.2035,0.0012536,0.00019711,0.0,0 STARLINK-3338,1 50812U 22001K   22156.91667824  .00019711  00000-0  12536-2 0  9998,2 50812  53.2147 201.7328 0002082  38.0891 226.2035 15.08825159 24554,6917.926,95.438,541.231,538.35,0.0
50812.0,STARLINK-3338,PAYLOAD,2022-06-06 14:00:01,15.08823374,0.000231,53.2148,198.7418,35.9414,251.5402,0.0025819,0.00041025,0.0,0 STARLINK-3338,1 50812U 22001K   22157.58334491  .00041025  00000-0  25819-2 0  9994,2 50812  53.2148 198.7418 0002310  35.9414 251.5402 15.08823374  1305,6917.931,95.439,541.394,538.198,0.0
50812.0,STARLINK-3338,PAYLOAD,2022-06-06 22:00:00,15.08830366,0.0002119,53.2151,197.2435,39.586,259.499,0.0018159,0.00028723,0.0,0 STARLINK-3338,1 50812U 22001K   22157.91667824  .00028723  00000-0  18159-2 0  9999,2 50812  53.2151 197.2435 0002119  39.5860 259.4990 15.08830366 24701,6917.91,95.438,541.241,538.309,0.0
50812.0,STARLINK-3338,PAYLOAD,2022-06-07 09:23:52,15.08841153,0.0002188,53.2159,195.1115,39.2796,320.8355,7.44e-05,8.96e-06,0.0,0 STARLINK-3338,1 50812U 22001K   22158.39158333  .00000896  00000-0  74400-4 0  9996,2 50812  53.2159 195.1115 0002188  39.2796 320.8355 15.08841153 24773,6917.877,95.437,541.255,538.2280000000002,0.0
50812.0,STARLINK-3338,PAYLOAD,2022-06-07 18:56:11,15.08843366,0.0002215,53.2158,193.3274,40.2806,319.8349,7.8985e-05,9.69e-06,0.0,0 STARLINK-3338,1 50812U 22001K   22158.78902119  .00000969  00000-0  78985-4 0  9991,2 50812  53.2158 193.3274 0002215  40.2806 319.8349 15.08843366 23580,6917.87,95.437,541.2669999999998,538.203,0.0
50812.0,STARLINK-3338,PAYLOAD,2022-06-08 09:14:40,15.08836249,0.0002208,53.2172,190.6539,50.395,309.7237,-2.638e-05,-7.08e-06,0.0,0 STARLINK-3338,1 50812U 22001K   22159.38519033 -.00000708  00000-0 -26380-4 0  9992,2 50812  53.2172 190.6539 0002208  50.3950 309.7237 15.08836249 24929,6917.892,95.438,541.284,538.229,0.0
50812.0,STARLINK-3338,PAYLOAD,2022-06-08 12:25:26,15.08832907,0.0002212,53.2166,190.0573,42.5872,317.5292,-5.3488e-05,-1.139e-05,0.0,0 STARLINK-3338,1 50812U 22001K   22159.51767336 -.00001139  00000-0 -53488-4 0  9996,2 50812  53.2166 190.0573 0002212  42.5872 317.5292 15.08832907 23693,6917.901999999999,95.438,541.297,538.237,0.0
50812.0,STARLINK-3338,PAYLOAD,2022-06-08 18:46:59,15.0883457,0.0002212,53.2166,188.8681,42.8651,317.2513,-3.4276e-05,-8.34e-06,0.0,0 STARLINK-3338,1 50812U 22001K   22159.78263236 -.00000834  00000-0 -34276-4 0  9990,2 50812  53.2166 188.8681 0002212  42.8651 317.2513 15.08834570 23732,6917.897,95.438,541.2919999999998,538.232,0.0
50812.0,STARLINK-3338,PAYLOAD,2022-06-09 10:40:50,15.0883826,0.0002217,53.2165,185.8942,43.3765,316.7401,-3.0265e-05,-7.699999999999999e-06,0.0,0 STARLINK-3338,1 50812U 22001K   22160.44503085 -.00000770  00000-0 -30265-4 0  9997,2 50812  53.2165 185.8942 0002217  43.3765 316.7401 15.08838260 23836,6917.886,95.438,541.284,538.217,0.0
50812.0,STARLINK-3338,PAYLOAD,2022-06-09 18:37:46,15.08839159,0.0002253,53.2163,184.4071,42.9587,317.1581,-4.519600000000001e-05,-1.008e-05,0.0,0 STARLINK-3338,1 50812U 22001K   22160.77623112 -.00001008  00000-0 -45196-4 0  9991,2 50812  53.2163 184.4071 0002253  42.9587 317.1581 15.08839159 25136,6917.8830000000025,95.438,541.307,538.189,0.0
50812.0,STARLINK-3338,PAYLOAD,2022-06-10 10:31:37,15.08835703,0.0002272,53.2153,181.4326,40.428,319.6881,5.3404e-05,5.62e-06,0.0,0 STARLINK-3338,1 50812U 22001K   22161.43863082  .00000562  00000-0  53404-4 0  9990,2 50812  53.2153 181.4326 0002272  40.4280 319.6881 15.08835703 23981,6917.894,95.438,541.33,538.187,0.0
50812.0,STARLINK-3338,PAYLOAD,2022-06-10 18:28:33,15.08837499,0.0002284,53.2155,179.9459,40.9397,319.1766,6.2333e-05,7.04e-06,0.0,0 STARLINK-3338,1 50812U 22001K   22161.76983016  .00000704  00000-0  62333-4 0  9995,2 50812  53.2155 179.9459 0002284  40.9397 319.1766 15.08837499 24037,6917.888000000001,95.438,541.3330000000002,538.173,0.0
50812.0,STARLINK-3338,PAYLOAD,2022-06-11 00:50:05,15.08839019,0.0002272,53.2155,178.7565,40.4981,319.618,6.2611e-05,7.08e-06,0.0,0 STARLINK-3338,1 50812U 22001K   22162.03478927  .00000708  00000-0  62611-4 0  9999,2 50812  53.2155 178.7565 0002272  40.4981 319.6180 15.08839019 25321,6917.8830000000025,95.438,541.32,538.177,0.0
50812.0,STARLINK-3338,PAYLOAD,2022-06-11 18:19:20,15.08842755,0.0002327,53.2157,175.4853,42.0923,318.0248,6.4928e-05,7.45e-06,0.0,0 STARLINK-3338,1 50812U 22001K   22162.76342650  .00000745  00000-0  64928-4 0  9996,2 50812  53.2157 175.4853 0002327  42.0923 318.0248 15.08842755 24184,6917.871999999999,95.437,541.347,538.127,0.0
50812.0,STARLINK-3338,PAYLOAD,2022-06-12 10:13:11,15.08845169,0.0002357,53.2156,172.5116,43.058,317.0596,5.0092e-05,5.09e-06,0.0,0 STARLINK-3338,1 50812U 22001K   22163.42582352  .00000509  00000-0  50092-4 0  9990,2 50812  53.2156 172.5116 0002357  43.0580 317.0596 15.08845169 25533,6917.865,95.437,541.36,538.099,0.0
50812.0,STARLINK-3338,PAYLOAD,2022-06-12 18:10:07,15.08834177,0.000232,53.2152,171.0247,42.1384,317.9786,-4.879600000000001e-05,-1.065e-05,0.0,0 STARLINK-3338,1 50812U 22001K   22163.75703403 -.00001065  00000-0 -48796-4 0  9996,2 50812  53.2152 171.0247 0002320  42.1384 317.9786 15.08834177 25582,6917.898,95.438,541.368,538.158,0.0
50812.0,STARLINK-3338,PAYLOAD,2022-06-13 10:03:59,15.08833873,0.0002378,53.2151,168.0511,42.3134,317.8041,-4.502600000000001e-05,-1.005e-05,0.0,0 STARLINK-3338,1 50812U 22001K   22164.41943606 -.00001005  00000-0 -45026-4 0  9998,2 50812  53.2151 168.0511 0002378  42.3134 317.8041 15.08833873 24437,6917.899,95.438,541.409,538.119,0.0
50812.0,STARLINK-3338,PAYLOAD,2022-06-14 05:08:36,15.088373,0.0002418,53.215,164.4831,41.8336,318.284,-2.1851e-05,-6.36e-06,0.0,0 STARLINK-3338,1 50812U 22001K   22165.21431519 -.00000636  00000-0 -21851-4 0  9991,2 50812  53.2150 164.4831 0002418  41.8336 318.2840 15.08837300 25807,6917.889,95.438,541.4259999999998,538.081,0.0
50812.0,STARLINK-3338,PAYLOAD,2022-06-14 09:54:46,15.08834795,0.0002428,53.2153,163.5905,44.7121,315.4067,3.4069e-05,2.54e-06,0.0,0 STARLINK-3338,1 50812U 22001K   22165.41303515  .00000254  00000-0  34069-4 0  9996,2 50812  53.2153 163.5905 0002428  44.7121 315.4067 15.08834795 24586,6917.896,95.438,541.441,538.082,0.0
50812.0,STARLINK-3338,PAYLOAD,2022-06-15 06:34:46,15.08838456,0.000246,53.2156,159.7248,45.2907,314.8285,9.1745e-05,1.172e-05,0.0,0 STARLINK-3338,1 50812U 22001K   22166.27415345  .00001172  00000-0  91745-4 0  9990,2 50812  53.2156 159.7248 0002460  45.2907 314.8285 15.08838456 25966,6917.885,95.438,541.452,538.048,0.0
50812.0,STARLINK-3338,PAYLOAD,2022-06-15 16:07:05,15.08841546,0.0002485,53.2156,157.9406,46.0768,314.0429,0.00010023,1.307e-05,0.0,0 STARLINK-3338,1 50812U 22001K   22166.67159138  .00001307  00000-0  10023-3 0  9998,2 50812  53.2156 157.9406 0002485  46.0768 314.0429 15.08841546 24777,6917.876,95.437,541.46,538.0219999999998,0.0
50812.0,STARLINK-3338,PAYLOAD,2022-06-19 02:47:09,15.08837349,0.0002517,53.2159,142.4773,49.3449,310.7762,3.3923e-05,2.51e-06,0.0,0 STARLINK-3338,1 50812U 22001K   22170.11607835  .00000251  00000-0  33923-4 0  9996,2 50812  53.2159 142.4773 0002517  49.3449 310.7762 15.08837349 25291,6917.888000000001,95.438,541.495,538.012,0.0
50812.0,STARLINK-3338,PAYLOAD,2022-06-19 15:30:13,15.08846155,0.0002482,53.216,140.0983,49.7771,310.3438,4.8974e-05,4.91e-06,0.0,0 STARLINK-3338,1 50812U 22001K   22170.64599108  .00000491  00000-0  48974-4 0  9995,2 50812  53.2160 140.0983 0002482  49.7771 310.3438 15.08846155 25373,6917.861999999999,95.437,541.444,538.01,0.0
50812.0,STARLINK-3338,PAYLOAD,2022-06-20 04:13:19,15.08841154,0.0002758,53.2157,137.7196,53.5982,306.5264,-1.9405e-05,-5.97e-06,0.0,0 STARLINK-3338,1 50812U 22001K   22171.17591646 -.00000597  00000-0 -19405-4 0  9999,2 50812  53.2157 137.7196 0002758  53.5982 306.5264 15.08841154 26707,6917.877,95.437,541.65,537.8340000000002,0.0
50812.0,STARLINK-3338,PAYLOAD,2022-06-20 15:21:01,15.08834544,0.0002563,53.2164,135.6379,51.764,308.3582,3.8994e-05,3.32e-06,0.0,0 STARLINK-3338,1 50812U 22001K   22171.63959901  .00000332  00000-0  38994-4 0  9991,2 50812  53.2164 135.6379 0002563  51.7640 308.3582 15.08834544 25527,6917.897,95.438,541.535,537.989,0.0
50812.0,STARLINK-3338,PAYLOAD,2022-06-21 07:14:52,15.08837989,0.0002415,53.2168,132.6643,49.8061,310.3143,-2.4897e-05,-6.85e-06,0.0,0 STARLINK-3338,1 50812U 22001K   22172.30199967 -.00000685  00000-0 -24897-4 0  9994,2 50812  53.2168 132.6643 0002415  49.8061 310.3143 15.08837989 26874,6917.887,95.438,541.422,538.081,0.0
50812.0,STARLINK-3338,PAYLOAD,2022-06-21 21:33:21,15.088301199999998,0.000222,53.2168,129.9878,47.3644,312.7535,2.3059e-05,7.9e-07,0.0,0 STARLINK-3338,1 50812U 22001K   22172.89816354  .00000079  00000-0  23059-4 0  9998,2 50812  53.2168 129.9878 0002220  47.3644 312.7535 15.08830120 25710,6917.911,95.438,541.311,538.24,0.0
50812.0,STARLINK-3338,PAYLOAD,2022-06-22 13:27:13,15.088193300000002,0.0002464,53.2173,127.014,54.094,306.028,0.00014714,2.053e-05,0.0,0 STARLINK-3338,1 50812U 22001K   22173.56057096  .00002053  00000-0  14714-3 0  9994,2 50812  53.2173 127.0140 0002464  54.0940 306.0280 15.08819330 27064,6917.944,95.439,541.513,538.104,0.0
